#dP2022  4 19 12  0  0.00000000      96 __u+U ITR00 EXT  IAC
## 2206 216000.00000000   900.00000000 59688 0.5000000000000
+  117   C06C07C08C09C10C11C12C13C14C16C19C20C21C22C23C24C25
+        C26C27C28C29C30C32C33C34C35C36C37C38C39C40C41C42C43
+        C44C45C46E01E02E03E04E05E07E08E09E10E11E12E13E14E15
+        E18E19E21E24E25E26E27E30E31E33E34E36G01G02G03G04G05
+        G06G07G08G09G10G11G12G13G14G15G16G17G18G19G20G21G22
+        G23G24G25G26G27G28G29G30G31G32J02J03R01R02R03R04R05
+        R07R08R09R11R12R13R14R15R17R18R19R20R21R22R24  0  0
++        11 10  9 10  9  9  9  9  8 11  9  8  8  8  8  9  8
++         8  8  9  8  9  8  9 10 11  9  8  9  9 10  8  7  9
++         8 10  8  7  8  8  8  8  8  8  9  8  8  8  8  7  7
++         7  7  7  9  9  8  7  8  9  8  9  8  7  8  8  7  9
++         8  8  8  7  7  9  7  8  8  9  9  8  7  9  8  8  7
++         8  8  7  8  7  8  9  7  7  8 10 10  7  8  9  9  8
++         9  8 10  8 10  9  9  9 10  7  9  9  8  9  8  0  0
%c M  cc GPS ccc cccc cccc cccc cccc ccccc ccccc ccccc ccccc
%c cc cc ccc ccc cccc cccc cccc cccc ccccc ccccc ccccc ccccc
%f  0.0000000  0.000000000  0.00000000000  0.000000000000000
%f  0.0000000  0.000000000  0.00000000000  0.000000000000000
%i    0    0    0    0      0      0      0      0         0
%i    0    0    0    0      0      0      0      0         0
/* IAC                                ULTRA-RAPID PREDICTION
/* S/V CLOCKS ARE ALIGNED TO GNSS TIME                      
/* G:C1WC2W R:C1PC2P E:C1XC5X C:C2IC6I J:C1CC2S             
/* PCV:IGS14_2196 OL/AL:FES2004  NONE     YN ORB:CoN CLK:CoN
*  2022 04 20  8 30  0.00000000
PC06  -6921.705922  23717.437085 -34148.543166   -170.815574
PC07 -18059.744775  35257.363159  14227.628556    -63.145861
PC08  -3168.021633  38003.760465  18149.327605    269.173406
PC09   4073.767620  26615.758671 -31960.142345   -713.213260
PC10 -10288.125964  35182.256499  20677.127862    135.611101
PC11 -22813.714246   2901.677030  15848.992060    302.961445
PC12 -26237.136472  -9471.243305   -639.322658   -626.375036
PC13   2780.394827  41081.059796   9815.023906    -55.533556
PC14 -22954.558452  14086.684993   7216.574479    460.357944
PC16  -9440.417724  22143.417082 -34449.576620    121.669981
PC19  19523.908519 -19829.941236   2277.111180    876.722260
PC20  22875.850637  -7761.749111 -13979.091202   -884.299987
PC21 -12606.040905  -9848.777528  22887.417338   -145.142400
PC22   4801.496407 -20916.399352  17862.724663   -969.396403
PC23   2457.168977  27439.619607  -4452.416233   -931.994093
PC24 -16812.290448  -2905.788755 -22090.312745   -955.193369
PC25  -9285.068535  18654.526699 -18579.546130   -748.364823
PC26 -14361.573993 -19960.264903 -13172.743163    749.209171
PC27  22164.642328  14242.198882   9148.154718    710.673922
PC28   5249.544577  17315.043843  21244.244395     57.411006
PC29  14997.654513 -10706.582208 -20964.991749    543.810408
PC30  26704.481441   2401.793177  -7698.553490    497.232604
PC32  12675.642969   9746.913533 -22849.370013   -962.944101
PC33 -19461.003134  19869.427677  -2139.071693   -967.161217
PC34 -26511.316642  -1757.952246   8565.343271   -421.523014
PC35  -4816.724112 -17113.176664 -21530.655210    237.147733
PC36  10028.197245 -17959.284583  18878.439816   -963.985960
PC37  13428.711277  21198.574469  12242.276525   -921.293261
PC38  -8412.719624  34152.388839  23384.182262    226.438651
PC39 -15681.609098  19881.890802 -33714.983676     34.950091
PC40 -25231.262710  31053.622171  13014.803463    262.363619
PC41  -5170.624768  21066.863876 -17496.542640   -966.889277
PC42 -22672.254788   6784.435373  14820.869997   -954.007467
PC43 -15748.392080  10327.575629  20589.776736   -928.882114
PC44 -22526.734277 -13623.390441  -9328.208120    633.667185
PC45  -2675.976872 -27444.330191   4215.416739    736.076121
PC46  16541.924621   1271.427036  22442.924846   -281.632744
PE01  -3644.835296 -24585.123785 -16073.531156   -619.888966
PE02   3745.692120  24507.316538  16179.820248    293.998416
PE03  10189.946304  14755.925613 -23547.501460   -549.912390
PE04 -26341.689110  -3530.761674  13042.913873  -1010.501928
PE05 -12302.044899  17537.356661 -20418.184777   -189.146728
PE07  27290.490889 -10088.997071   5481.729123   -660.433306
PE08  26501.670994   3124.126633 -12814.726657   -515.424728
PE09 -27189.793814  10227.240307  -5635.255546   -490.544534
PE10 -22140.886554  -5946.222050  18717.749363   -507.857644
PE11 -17226.961246   4093.609390  23713.833067   3906.528804
PE12 -23309.691146 -14583.616885  10991.954193   4653.816882
PE13  17575.202084  -3456.899445 -23561.413423    428.144920
PE14  10764.913828  14170.428441  17566.407318  -1820.497576
PE15  23301.395044  14642.298334 -10881.864320    750.571320
PE18  -2143.682576 -20005.389761 -24152.246670  -1543.299206
PE19  -7430.824096 -15553.938152  24074.560511  -3318.925054
PE21   9224.341951 -28118.390149    531.446528   -729.516289
PE24 -17951.216749  14470.948297 -18592.341974   -570.930101
PE25  -9395.364510  28062.658107   -796.143711   -571.053177
PE26    837.264199 -20041.453371 -21767.571961  -1051.374589
PE27  17647.166489 -15712.351951  17821.365059   -280.393716
PE30  15231.879353   7034.652227  24374.346875   -445.453315
PE31 -15611.460317  -5812.939536 -24464.353000   -495.354784
PE33 -15267.643529 -24024.073937  -8146.156104   -457.442554
PE34  15448.098106  23962.503649   7949.627929   -512.989624
PE36  -1590.280962  19377.205476  22314.934943   -362.251682
PG01 -19208.999583  -9618.446192  15558.257046    380.896246
PG02  14354.981785  21913.905910   4509.665797   -653.189448
PG03 -16171.394051   1212.345857  20905.951951   -213.891265
PG04 -26239.761945  -1280.053559   4218.469115   -174.404953
PG05   9217.872997  14814.730082 -20144.499159    -78.960965
PG06   1698.644204  20948.860452  16253.844645    273.335390
PG07 -13740.682278   6876.377697 -21296.107995    320.686335
PG08 -22246.351746  -6622.358417 -13266.964110    -64.711107
PG09 -24750.449543   7407.552389  -6295.728324   -342.511395
PG10  11396.058682 -23789.201355   -936.050064   -385.502466
PG11  12611.266375  23235.058727   2624.753144    -36.963872
PG12  14722.908361   3784.254646  21499.146229   -203.141813
PG13  14666.447697  13019.813998 -18141.329123    297.371182
PG14 -13089.830547  22972.394134  -1998.274659   -103.739441
PG15  23179.505020   4540.206852 -12862.921036    -67.532811
PG16  -4090.658230 -18624.804484 -18560.655976   -493.438975
PG17 -12420.577622  13614.018097  19577.919711    602.656806
PG18  13574.733181  -6609.236794 -21863.035080    190.942997
PG19  -4881.937359  14426.893625  21473.913307    146.764359
PG20   3733.842615  22804.037049 -13294.467608    515.739023
PG21 -20357.768955 -16360.449992   7144.474756    160.582399
PG22   1332.938583 -15392.102539  22009.513750    246.248088
PG23  16027.763907 -17712.673049 -11514.335507    -16.290737
PG24  20956.213521  11833.001201  11380.486900    253.998782
PG25  17447.951139 -11171.762483  16173.325230    314.342723
PG26   2697.021166 -24775.709863  -8811.726724    199.939004
PG27 -11671.313255 -12836.587240 -20431.649491    187.235658
PG28  -8073.766951  24467.138476   7440.127815    369.479336
PG29  25639.156746  -4344.944569  -5618.050682   -505.047589
PG30  -7116.950085  15691.711872 -20074.852605   -524.576754
PG31  -3145.328636 -22090.304401  13916.734191   -174.206989
PG32   9348.391901 -15046.770202  19873.569390   -109.321901
PJ02 -23032.623673  32207.726849 -10066.977086     -2.864433
PJ03 -27763.981711  22085.986025  27864.155758     -1.642014
PR01 -21988.963968   8708.969908   9543.732445      7.954240
PR02 -17225.779260  15908.575637 -10067.952861    516.078921
PR03  -1953.323503  13255.573436 -21666.348106     55.256512
PR04  14008.759091   3041.679126 -21062.779212    137.611625
PR05  22314.264265  -8640.063573  -8789.300283     91.480621
PR07   1109.683748 -12913.760456  22005.489799     34.098265
PR08 -14197.653790  -3032.117034  21042.207069    -64.700596
PR09   5507.140966 -21216.782148  13124.440407     50.771060
PR11  -9248.731199 -15329.897898 -18166.940175     40.768212
PR12 -10694.466084   4584.547852 -22679.371384     18.028874
PR13  -5958.339339  20321.551951 -14238.937533    -21.134841
PR14   2748.360522  25057.544683   3859.629393     76.727011
PR15   9383.950304  14666.870477  18656.689044     96.708910
PR17  10146.715320  14930.408877  18041.277365    519.131387
PR18  21233.549525  13658.496891   3431.023650    114.177634
PR19  21478.004428   6542.470478 -12106.860502   -186.027944
PR20   7967.618628  -7178.131574 -23136.326827    -68.982588
PR21 -11372.556572 -15132.388501 -17091.572522   -294.764683
PR22 -21530.471735 -13547.124879  -2550.615450   -178.051145
PR24  -7408.500169   8176.975303  23010.205209     89.942611
EOF
